[{"OBJECT_NAME":"STARLINK-36967","OBJECT_ID":"2026-039AD","EPOCH":"2026-03-09T22:00:01.999584","MEAN_MOTION":15.86034512,"ECCENTRICITY":0.00017341,"INCLINATION":42.9972,"RA_OF_ASC_NODE":53.3059,"ARG_OF_PERICENTER":258.5361,"MEAN_ANOMALY":95.1689,"EPHEMERIS_TYPE":0,"CLASSIFICATION_TYPE":"U","NORAD_CAT_ID":68013,"ELEMENT_SET_NO":999,"REV_AT_EPOCH":291,"BSTAR":-0.0069624488,"MEAN_MOTION_DOT":-0.0156263,"MEAN_MOTION_DDOT":0},{"OBJECT_NAME":"GFO","OBJECT_ID":"1998-007A","EPOCH":"2026-03-09T11:35:22.629120","MEAN_MOTION":15.65801864,"ECCENTRICITY":0.00488061,"INCLINATION":108.0178,"RA_OF_ASC_NODE":266.8886,"ARG_OF_PERICENTER":194.2539,"MEAN_ANOMALY":165.7295,"EPHEMERIS_TYPE":0,"CLASSIFICATION_TYPE":"U","NORAD_CAT_ID":25157,"ELEMENT_SET_NO":999,"REV_AT_EPOCH":51081,"BSTAR":0.00066525992,"MEAN_MOTION_DOT":0.00072245,"MEAN_MOTION_DDOT":0}]
